ONEWEB-0136             
1 47282U 20100AA  26096.68109895 -.00000200  00000+0 -59263-3 0  9996
2 47282  87.9015   4.8496 0002095  73.9931 286.1428 13.12442450255283
ONEWEB-0137             
1 47283U 20100AB  26096.25756232  .00000259  00000+0  68337-3 0  9997
2 47283  87.9020   4.9399 0001655  78.6342 281.4973 13.12444774255130
ONEWEB-0138             
1 47284U 20100AC  26096.76918369 -.00000373  00000+0 -10714-2 0  9999
2 47284  87.9018   4.8468 0001977  74.3871 285.7475 13.12441103255284
ONEWEB-0139             
1 47285U 20100AD  26096.81000001  .00000445  00000+0  12011-2 0  9991
2 47285  87.9017   4.8261 0001804  77.4552 282.6778 13.12441226255361
ONEWEB-0140             
1 47286U 20100AE  26096.68786847 -.00000354  00000+0 -10189-2 0  9991
2 47286  87.9017   4.8395 0001907  82.8050 277.3295 13.12440846255314
ONEWEB-0141             
1 47287U 20100AF  26096.73348464  .00000350  00000+0  93722-3 0  9996
2 47287  87.9017   4.8363 0001467  75.6223 284.5068 13.12441254255304
ONEWEB-0142             
1 47288U 20100AG  26096.64566120  .00000378  00000+0  10159-2 0  9990
2 47288  87.9015   4.8778 0001615  65.8001 294.3297 13.12443109255284
ONEWEB-0143             
1 47289U 20100AH  26096.80816554  .00000460  00000+0  12436-2 0  9990
2 47289  87.9015   4.8421 0001759  78.5422 281.5904 13.12442278255286
ONEWEB-0144             
1 47290U 20100AJ  26096.77936024 -.00000225  00000+0 -66060-3 0  9997
2 47290  87.9021   4.8186 0001922  68.6021 291.5313 13.12444500255207
ONEWEB-0145             
1 47291U 20100AK  26096.97927032  .00000000  00000+0 -34739-4 0  9998
2 47291  87.9007   4.8149 0001787  75.4658 284.6669 13.12443113255422
ONEWEB-0146             
1 47292U 20100AL  26096.97588237 -.00000021  00000+0 -94487-4 0  9999
2 47292  87.9016   4.8022 0001851  89.2366 270.8975 13.12441307255334
ONEWEB-0147             
1 47293U 20100AM  26096.25585496 -.00000303  00000+0 -87635-3 0  9994
2 47293  87.9018   4.9250 0001938  78.4406 281.6940 13.12445103255130
ONEWEB-0115             
1 48042U 21025A   26096.94965952  .00000264  00000+0  68707-3 0  9992
2 48042  87.9004 334.4047 0001712  83.5039 276.6285 13.13469253244241
ONEWEB-0152             
1 48043U 21025B   26096.88702314  .00000181  00000+0  46165-3 0  9999
2 48043  87.8998 334.4171 0001764  85.2952 274.8378 13.13467880244192
ONEWEB-0153             
1 48044U 21025C   26096.94119679  .00000119  00000+0  29212-3 0  9998
2 48044  87.8996 334.4108 0001691  78.5159 281.6160 13.13469490244198
ONEWEB-0154             
1 48045U 21025D   26096.93781378  .00000036  00000+0  63357-4 0  9996
2 48045  87.8998 334.4091 0001797  81.3405 278.7927 13.13470161244156
