[{"OBJECT_NAME":"ONEWEB-0136","OBJECT_ID":"2020-100AA","EPOCH":"2026-04-06T16:20:46.949280","MEAN_MOTION":13.1244245,"ECCENTRICITY":0.0002095,"INCLINATION":87.9015,"RA_OF_ASC_NODE":4.8496,"ARG_OF_PERICENTER":73.9931,"MEAN_ANOMALY":286.1428,"EPHEMERIS_TYPE":0,"CLASSIFICATION_TYPE":"U","NORAD_CAT_ID":47282,"ELEMENT_SET_NO":999,"REV_AT_EPOCH":25528,"BSTAR":-0.00059263,"MEAN_MOTION_DOT":-2e-06,"MEAN_MOTION_DDOT":0.0},{"OBJECT_NAME":"ONEWEB-0137","OBJECT_ID":"2020-100AB","EPOCH":"2026-04-06T06:10:53.384448","MEAN_MOTION":13.12444774,"ECCENTRICITY":0.0001655,"INCLINATION":87.902,"RA_OF_ASC_NODE":4.9399,"ARG_OF_PERICENTER":78.6342,"MEAN_ANOMALY":281.4973,"EPHEMERIS_TYPE":0,"CLASSIFICATION_TYPE":"U","NORAD_CAT_ID":47283,"ELEMENT_SET_NO":999,"REV_AT_EPOCH":25513,"BSTAR":0.0006833700000000001,"MEAN_MOTION_DOT":2.59e-06,"MEAN_MOTION_DDOT":0.0},{"OBJECT_NAME":"ONEWEB-0138","OBJECT_ID":"2020-100AC","EPOCH":"2026-04-06T18:27:37.470816","MEAN_MOTION":13.12441103,"ECCENTRICITY":0.0001977,"INCLINATION":87.9018,"RA_OF_ASC_NODE":4.8468,"ARG_OF_PERICENTER":74.3871,"MEAN_ANOMALY":285.7475,"EPHEMERIS_TYPE":0,"CLASSIFICATION_TYPE":"U","NORAD_CAT_ID":47284,"ELEMENT_SET_NO":999,"REV_AT_EPOCH":25528,"BSTAR":-0.0010714,"MEAN_MOTION_DOT":-3.73e-06,"MEAN_MOTION_DDOT":0.0},{"OBJECT_NAME":"ONEWEB-0139","OBJECT_ID":"2020-100AD","EPOCH":"2026-04-06T19:26:24.000864","MEAN_MOTION":13.12441226,"ECCENTRICITY":0.0001804,"INCLINATION":87.9017,"RA_OF_ASC_NODE":4.8261,"ARG_OF_PERICENTER":77.4552,"MEAN_ANOMALY":282.6778,"EPHEMERIS_TYPE":0,"CLASSIFICATION_TYPE":"U","NORAD_CAT_ID":47285,"ELEMENT_SET_NO":999,"REV_AT_EPOCH":25536,"BSTAR":0.0012010999999999999,"MEAN_MOTION_DOT":4.45e-06,"MEAN_MOTION_DDOT":0.0},{"OBJECT_NAME":"ONEWEB-0140","OBJECT_ID":"2020-100AE","EPOCH":"2026-04-06T16:30:31.835808","MEAN_MOTION":13.12440846,"ECCENTRICITY":0.0001907,"INCLINATION":87.9017,"RA_OF_ASC_NODE":4.8395,"ARG_OF_PERICENTER":82.805,"MEAN_ANOMALY":277.3295,"EPHEMERIS_TYPE":0,"CLASSIFICATION_TYPE":"U","NORAD_CAT_ID":47286,"ELEMENT_SET_NO":999,"REV_AT_EPOCH":25531,"BSTAR":-0.0010188999999999999,"MEAN_MOTION_DOT":-3.54e-06,"MEAN_MOTION_DDOT":0.0},{"OBJECT_NAME":"ONEWEB-0141","OBJECT_ID":"2020-100AF","EPOCH":"2026-04-06T17:36:13.072896","MEAN_MOTION":13.12441254,"ECCENTRICITY":0.0001467,"INCLINATION":87.9017,"RA_OF_ASC_NODE":4.8363,"ARG_OF_PERICENTER":75.6223,"MEAN_ANOMALY":284.5068,"EPHEMERIS_TYPE":0,"CLASSIFICATION_TYPE":"U","NORAD_CAT_ID":47287,"ELEMENT_SET_NO":999,"REV_AT_EPOCH":25530,"BSTAR":0.0009372200000000001,"MEAN_MOTION_DOT":3.5e-06,"MEAN_MOTION_DDOT":0.0},{"OBJECT_NAME":"ONEWEB-0142","OBJECT_ID":"2020-100AG","EPOCH":"2026-04-06T15:29:45.127680","MEAN_MOTION":13.12443109,"ECCENTRICITY":0.0001615,"INCLINATION":87.9015,"RA_OF_ASC_NODE":4.8778,"ARG_OF_PERICENTER":65.8001,"MEAN_ANOMALY":294.3297,"EPHEMERIS_TYPE":0,"CLASSIFICATION_TYPE":"U","NORAD_CAT_ID":47288,"ELEMENT_SET_NO":999,"REV_AT_EPOCH":25528,"BSTAR":0.0010159,"MEAN_MOTION_DOT":3.78e-06,"MEAN_MOTION_DDOT":0.0},{"OBJECT_NAME":"ONEWEB-0143","OBJECT_ID":"2020-100AH","EPOCH":"2026-04-06T19:23:45.502656","MEAN_MOTION":13.12442278,"ECCENTRICITY":0.0001759,"INCLINATION":87.9015,"RA_OF_ASC_NODE":4.8421,"ARG_OF_PERICENTER":78.5422,"MEAN_ANOMALY":281.5904,"EPHEMERIS_TYPE":0,"CLASSIFICATION_TYPE":"U","NORAD_CAT_ID":47289,"ELEMENT_SET_NO":999,"REV_AT_EPOCH":25528,"BSTAR":0.0012436,"MEAN_MOTION_DOT":4.6e-06,"MEAN_MOTION_DDOT":0.0},{"OBJECT_NAME":"ONEWEB-0144","OBJECT_ID":"2020-100AJ","EPOCH":"2026-04-06T18:42:16.724736","MEAN_MOTION":13.124445,"ECCENTRICITY":0.0001922,"INCLINATION":87.9021,"RA_OF_ASC_NODE":4.8186,"ARG_OF_PERICENTER":68.6021,"MEAN_ANOMALY":291.5313,"EPHEMERIS_TYPE":0,"CLASSIFICATION_TYPE":"U","NORAD_CAT_ID":47290,"ELEMENT_SET_NO":999,"REV_AT_EPOCH":25520,"BSTAR":-0.0006606,"MEAN_MOTION_DOT":-2.25e-06,"MEAN_MOTION_DDOT":0.0},{"OBJECT_NAME":"ONEWEB-0145","OBJECT_ID":"2020-100AK","EPOCH":"2026-04-06T23:30:08.955648","MEAN_MOTION":13.12443113,"ECCENTRICITY":0.0001787,"INCLINATION":87.9007,"RA_OF_ASC_NODE":4.8149,"ARG_OF_PERICENTER":75.4658,"MEAN_ANOMALY":284.6669,"EPHEMERIS_TYPE":0,"CLASSIFICATION_TYPE":"U","NORAD_CAT_ID":47291,"ELEMENT_SET_NO":999,"REV_AT_EPOCH":25542,"BSTAR":-3.4739e-05,"MEAN_MOTION_DOT":0.0,"MEAN_MOTION_DDOT":0.0},{"OBJECT_NAME":"ONEWEB-0146","OBJECT_ID":"2020-100AL","EPOCH":"2026-04-06T23:25:16.236768","MEAN_MOTION":13.12441307,"ECCENTRICITY":0.0001851,"INCLINATION":87.9016,"RA_OF_ASC_NODE":4.8022,"ARG_OF_PERICENTER":89.2366,"MEAN_ANOMALY":270.8975,"EPHEMERIS_TYPE":0,"CLASSIFICATION_TYPE":"U","NORAD_CAT_ID":47292,"ELEMENT_SET_NO":999,"REV_AT_EPOCH":25533,"BSTAR":-9.4487e-05,"MEAN_MOTION_DOT":-2.1e-07,"MEAN_MOTION_DDOT":0.0},{"OBJECT_NAME":"ONEWEB-0147","OBJECT_ID":"2020-100AM","EPOCH":"2026-04-06T06:08:25.868544","MEAN_MOTION":13.12445103,"ECCENTRICITY":0.0001938,"INCLINATION":87.9018,"RA_OF_ASC_NODE":4.925,"ARG_OF_PERICENTER":78.4406,"MEAN_ANOMALY":281.694,"EPHEMERIS_TYPE":0,"CLASSIFICATION_TYPE":"U","NORAD_CAT_ID":47293,"ELEMENT_SET_NO":999,"REV_AT_EPOCH":25513,"BSTAR":-0.00087635,"MEAN_MOTION_DOT":-3.03e-06,"MEAN_MOTION_DDOT":0.0},{"OBJECT_NAME":"ONEWEB-0115","OBJECT_ID":"2021-025A","EPOCH":"2026-04-06T22:47:30.582528","MEAN_MOTION":13.13469253,"ECCENTRICITY":0.0001712,"INCLINATION":87.9004,"RA_OF_ASC_NODE":334.4047,"ARG_OF_PERICENTER":83.5039,"MEAN_ANOMALY":276.6285,"EPHEMERIS_TYPE":0,"CLASSIFICATION_TYPE":"U","NORAD_CAT_ID":48042,"ELEMENT_SET_NO":999,"REV_AT_EPOCH":24424,"BSTAR":0.00068707,"MEAN_MOTION_DOT":2.64e-06,"MEAN_MOTION_DDOT":0.0},{"OBJECT_NAME":"ONEWEB-0152","OBJECT_ID":"2021-025B","EPOCH":"2026-04-06T21:17:18.799296","MEAN_MOTION":13.1346788,"ECCENTRICITY":0.0001764,"INCLINATION":87.8998,"RA_OF_ASC_NODE":334.4171,"ARG_OF_PERICENTER":85.2952,"MEAN_ANOMALY":274.8378,"EPHEMERIS_TYPE":0,"CLASSIFICATION_TYPE":"U","NORAD_CAT_ID":48043,"ELEMENT_SET_NO":999,"REV_AT_EPOCH":24419,"BSTAR":0.00046165,"MEAN_MOTION_DOT":1.81e-06,"MEAN_MOTION_DDOT":0.0},{"OBJECT_NAME":"ONEWEB-0153","OBJECT_ID":"2021-025C","EPOCH":"2026-04-06T22:35:19.402656","MEAN_MOTION":13.1346949,"ECCENTRICITY":0.0001691,"INCLINATION":87.8996,"RA_OF_ASC_NODE":334.4108,"ARG_OF_PERICENTER":78.5159,"MEAN_ANOMALY":281.616,"EPHEMERIS_TYPE":0,"CLASSIFICATION_TYPE":"U","NORAD_CAT_ID":48044,"ELEMENT_SET_NO":999,"REV_AT_EPOCH":24419,"BSTAR":0.00029212,"MEAN_MOTION_DOT":1.19e-06,"MEAN_MOTION_DDOT":0.0},{"OBJECT_NAME":"ONEWEB-0154","OBJECT_ID":"2021-025D","EPOCH":"2026-04-06T22:30:27.110592","MEAN_MOTION":13.13470161,"ECCENTRICITY":0.0001797,"INCLINATION":87.8998,"RA_OF_ASC_NODE":334.4091,"ARG_OF_PERICENTER":81.3405,"MEAN_ANOMALY":278.7927,"EPHEMERIS_TYPE":0,"CLASSIFICATION_TYPE":"U","NORAD_CAT_ID":48045,"ELEMENT_SET_NO":999,"REV_AT_EPOCH":24415,"BSTAR":6.3357e-05,"MEAN_MOTION_DOT":3.6e-07,"MEAN_MOTION_DDOT":0.0}]